O3B MPOWER F1           
1 54755U 22174A   24028.47286447 -.00000022  00000+0  00000+0 0  9993
2 54755   0.0601  11.1522 0006264 307.9758 138.2824  5.00118513 21784
